GLOBAL-19               
1 55982U 23041B   26159.85103359  .00013782  00000+0  36819-3 0  9996
2 55982  42.0007 250.4919 0010176 307.6527  52.3388 15.37834576180646
BRO-9                   
1 56185U 23054H   26160.51344941  .00475132  95540-4  11090-2 0  9997
2 56185  97.2949  78.3693 0006554 143.3954 216.7772 15.96982394177869
ION SCV-010             
1 56192U 23054Q   26160.48874772  .00004213  00000+0  16578-3 0  9998
2 56192  97.3794  50.0881 0011487 226.2694 133.7594 15.26130903175025
TELEOS-2                
1 56310U 23057C   26159.89129578  .00005404  00000+0  40456-3 0  9998
2 56310   9.9883 264.5930 0000831 280.5226  79.4894 14.96422145171558
SNIPE 4                 
1 56744U 23072B   26160.49271861  .00017009  00000+0  39999-3 0  9991
2 56744  97.5265   6.2558 0005167   9.4323 350.7020 15.42043992168920
SNIPE 2                 
1 56745U 23072C   26160.55775126  .00024571  00000+0  49634-3 0  9991
2 56745  97.5258   9.3145 0005030  40.9208 319.2418 15.46476952169067
2023-072G               
1 56749U 23072G   26160.51182882  .00026788  00000+0  47642-3 0  9991
2 56749  97.4922   8.0612 0003713  33.3403 326.8081 15.50135592169272
GEISAT PRECURSOR        
1 56934U 23084C   26160.52463896  .00006498  00000+0  19659-3 0  9991
2 56934  97.6210 301.2270 0005690  26.1144 334.0384 15.34547049166355
BLACKJACK ACES-3        
1 56950U 23084U   26159.86682947  .00005401  00000+0  26570-3 0  9997
2 56950  97.6198 294.9959 0003331  56.8828 303.2725 15.18435014165906
BLACKJACK ACES-2        
1 56955U 23084Z   26160.33465522  .00006145  00000+0  30114-3 0  9999
2 56955  97.6194 295.5516 0001534  69.0157 291.1241 15.18513965165985
BLACKJACK ACES-1        
1 56956U 23084AA  26160.38868235  .00006573  00000+0  32195-3 0  9999
2 56956  97.6186 295.3803 0001229  97.3099 262.8274 15.18504870115716
ION SCV-011             
1 56957U 23084AB  26160.47389987  .00004819  00000+0  17532-3 0  9991
2 56957  98.1385 347.0395 0008402  69.0995 291.1141 15.28771204164637
GHOST-3                 
1 56958U 23084AC  26160.40530144  .00015541  00000+0  30277-3 0  9993
2 56958  97.6203 308.5619 0005745 326.6386  33.4501 15.47627096166814
TOMORROW-R2             
1 56962U 23084AG  26160.43743975  .00345641  53644-4  62449-3 0  9999
2 56962  97.6016 323.5655 0007229 246.7276 113.3241 16.01529127167814
AFR-1                   
1 56964U 23084AJ  26160.57299544  .00004149  00000+0  15231-3 0  9999
2 56964  97.6260 297.0819 0010659  14.0616 346.0918 15.28491226166067
METEOR-M2 3             
1 57166U 23091A   26160.51014142 -.00000010  00000+0  14458-4 0  9990
2 57166  98.6092 215.6452 0003918 175.6776 184.4437 14.24046121153427
UMKA 1 (RS40S)          
1 57172U 23091G   26160.46134992  .00005475  00000+0  25143-3 0  9998
2 57172  97.5055 219.1887 0013870 141.8772 218.3447 15.20727626162837
2023-091H               
1 57173U 23091H   26160.52376166  .00010502  00000+0  38098-3 0  9997
2 57173  97.5052 223.6545 0011074 136.4137 223.7979 15.28466961163139
2023-091J               
1 57174U 23091J   26160.52119559  .00002989  00000+0  16855-3 0  9996
2 57174  97.5060 213.7270 0013668 167.8302 192.3262 15.13873112162473
CUBEBEL 2 (EU11S)       
1 57175U 23091K   26160.46171823  .00011507  00000+0  41085-3 0  9991
2 57175  97.5055 223.6105 0011097 138.2297 221.9792 15.28963000163126
SITRO-AIS 5 (KATYS)     
1 57176U 23091L   26160.48028183  .00010984  00000+0  38836-3 0  9992
2 57176  97.5064 224.3072 0012728 127.2913 232.9489 15.29277023163166
ZORKIY-2M 1             
1 57177U 23091M   26160.51394274  .00006616  00000+0  30240-3 0  9992
2 57177  97.5095 219.5039 0014484 139.2194 221.0128 15.20801714162838
CUBESX-HSE 3 (RS42S)    
1 57178U 23091N   26160.46210438  .00012266  00000+0  41083-3 0  9991
2 57178  97.5095 225.9526 0012150 118.4929 241.7536 15.31017541163241
MONITOR-3 (RS58S)       
1 57180U 23091Q   26160.46964848  .00009971  00000+0  37031-3 0  9992
2 57180  97.5088 223.8599 0013037 124.5955 235.6515 15.27684662163119
MONITOR-4 (RS57S)       
1 57182U 23091S   26160.44914729  .00009281  00000+0  34396-3 0  9990
2 57182  97.5082 223.8099 0013037 125.0080 235.2384 15.27777428163118
MONITOR-2 (RS39S)       
1 57184U 23091U   26160.47295359  .00004231  00000+0  20607-3 0  9996
2 57184  97.5077 218.8060 0012419 134.8343 225.3902 15.18837970162786
SVYATOBOR 1 (RS60S)     
1 57187U 23091X   26160.52119485  .00008473  00000+0  32703-3 0  9992
2 57187  97.5093 224.2964 0010874 117.3158 242.9188 15.26483432163145
HORS 1                  
1 57188U 23091Y   26160.50725882  .00008471  00000+0  32596-3 0  9993
2 57188  97.5071 224.0458 0010353 117.0922 243.1374 15.26587338163146
VIZARD-METEO (RS38S)    
1 57189U 23091Z   26160.52504839  .00015332  00000+0  44197-3 0  9997
2 57189  97.5095 229.8581 0008656 100.5439 259.6780 15.35780088163517
SITRO-AIS 6 (CHIRKIN)   
1 57192U 23091AC  26160.50710819  .00009431  00000+0  37105-3 0  9990
2 57192  97.5073 223.4940 0012994 130.1824 230.0554 15.25787932163115
