OBJECT_NAME,OBJECT_ID,EPOCH,MEAN_MOTION,ECCENTRICITY,INCLINATION,RA_OF_ASC_NODE,ARG_OF_PERICENTER,MEAN_ANOMALY,EPHEMERIS_TYPE,CLASSIFICATION_TYPE,NORAD_CAT_ID,ELEMENT_SET_NO,REV_AT_EPOCH,BSTAR,MEAN_MOTION_DOT,MEAN_MOTION_DDOT
GLOBAL-19,2023-041B,2026-06-08T20:25:29.302176,15.37834576,.00101766,42.0007,250.4919,307.6527,52.3388,0,U,55982,999,18064,.36818651E-3,.13782E-3,0
BRO-9,2023-054H,2026-06-09T12:19:22.029024,15.96982394,.0006554,97.2949,78.3693,143.3954,216.7772,0,U,56185,999,17786,.1109E-2,.475132E-2,.9554E-4
ION SCV-010,2023-054Q,2026-06-09T11:43:47.803008,15.26130903,.0011487,97.3794,50.0881,226.2694,133.7594,0,U,56192,999,17502,.16578E-3,.4213E-4,0
TELEOS-2,2023-057C,2026-06-08T21:23:27.955392,14.96422145,.00008313,9.9883,264.5930,280.5226,79.4894,0,U,56310,999,17155,.40455709E-3,.5404E-4,0
SNIPE 4,2023-072B,2026-06-09T11:49:30.887904,15.42043992,.0005167,97.5265,6.2558,9.4323,350.7020,0,U,56744,999,16892,.39999E-3,.17009E-3,0
SNIPE 2,2023-072C,2026-06-09T13:23:09.708864,15.46476952,.000503,97.5258,9.3145,40.9208,319.2418,0,U,56745,999,16906,.49634E-3,.24571E-3,0
2023-072G,2023-072G,2026-06-09T12:17:02.010048,15.50135592,.0003713,97.4922,8.0612,33.3403,326.8081,0,U,56749,999,16927,.47642E-3,.26788E-3,0
GEISAT PRECURSOR,2023-084C,2026-06-09T12:35:28.806144,15.34547049,.000569,97.6210,301.2270,26.1144,334.0384,0,U,56934,999,16635,.19659E-3,.6498E-4,0
BLACKJACK ACES-3,2023-084U,2026-06-08T20:48:14.066208,15.18435014,.00033313,97.6198,294.9959,56.8828,303.2725,0,U,56950,999,16590,.2656989E-3,.5401E-4,0
BLACKJACK ACES-2,2023-084Z,2026-06-09T08:01:54.211008,15.18513965,.0001534,97.6194,295.5516,69.0157,291.1241,0,U,56955,999,16598,.30114E-3,.6145E-4,0
BLACKJACK ACES-1,2023-084AA,2026-06-09T09:19:42.155040,15.18504870,.0001229,97.6186,295.3803,97.3099,262.8274,0,U,56956,999,11571,.32195E-3,.6573E-4,0
ION SCV-011,2023-084AB,2026-06-09T11:22:24.948768,15.28771204,.0008402,98.1385,347.0395,69.0995,291.1141,0,U,56957,999,16463,.17532E-3,.4819E-4,0
GHOST-3,2023-084AC,2026-06-09T09:43:38.044416,15.47627096,.0005745,97.6203,308.5619,326.6386,33.4501,0,U,56958,999,16681,.30277E-3,.15541E-3,0
TOMORROW-R2,2023-084AG,2026-06-09T10:29:54.794400,16.01529127,.0007229,97.6016,323.5655,246.7276,113.3241,0,U,56962,999,16781,.62449E-3,.345641E-2,.53644E-4
AFR-1,2023-084AJ,2026-06-09T13:45:06.806016,15.28491226,.0010659,97.6260,297.0819,14.0616,346.0918,0,U,56964,999,16606,.15231E-3,.4149E-4,0
METEOR-M2 3,2023-091A,2026-06-09T12:14:36.218688,14.24046121,.0003918,98.6092,215.6452,175.6776,184.4437,0,U,57166,999,15342,.14458E-4,-.1E-6,0
UMKA 1 (RS40S),2023-091G,2026-06-09T11:04:20.633088,15.20727626,.001387,97.5055,219.1887,141.8772,218.3447,0,U,57172,999,16283,.25143E-3,.5475E-4,0
2023-091H,2023-091H,2026-06-09T12:34:13.007424,15.28466961,.0011074,97.5052,223.6545,136.4137,223.7979,0,U,57173,999,16313,.38098E-3,.10502E-3,0
2023-091J,2023-091J,2026-06-09T12:30:31.298976,15.13873112,.0013668,97.5060,213.7270,167.8302,192.3262,0,U,57174,999,16247,.16855E-3,.2989E-4,0
CUBEBEL 2 (EU11S),2023-091K,2026-06-09T11:04:52.455072,15.28963000,.0011097,97.5055,223.6105,138.2297,221.9792,0,U,57175,999,16312,.41085E-3,.11507E-3,0
SITRO-AIS 5 (KATYS),2023-091L,2026-06-09T11:31:36.350112,15.29277023,.0012728,97.5064,224.3072,127.2913,232.9489,0,U,57176,999,16316,.38836E-3,.10984E-3,0
ZORKIY-2M 1,2023-091M,2026-06-09T12:20:04.652736,15.20801714,.0014484,97.5095,219.5039,139.2194,221.0128,0,U,57177,999,16283,.3024E-3,.6616E-4,0
CUBESX-HSE 3 (RS42S),2023-091N,2026-06-09T11:05:25.818432,15.31017541,.001215,97.5095,225.9526,118.4929,241.7536,0,U,57178,999,16324,.41083E-3,.12266E-3,0
MONITOR-3 (RS58S),2023-091Q,2026-06-09T11:16:17.628672,15.27684662,.0013037,97.5088,223.8599,124.5955,235.6515,0,U,57180,999,16311,.37031E-3,.9971E-4,0
MONITOR-4 (RS57S),2023-091S,2026-06-09T10:46:46.325856,15.27777428,.0013037,97.5082,223.8099,125.0080,235.2384,0,U,57182,999,16311,.34396E-3,.9281E-4,0
MONITOR-2 (RS39S),2023-091U,2026-06-09T11:21:03.190176,15.18837970,.0012419,97.5077,218.8060,134.8343,225.3902,0,U,57184,999,16278,.20607E-3,.4231E-4,0
SVYATOBOR 1 (RS60S),2023-091X,2026-06-09T12:30:31.235040,15.26483432,.0010874,97.5093,224.2964,117.3158,242.9188,0,U,57187,999,16314,.32703E-3,.8473E-4,0
HORS 1,2023-091Y,2026-06-09T12:10:27.162048,15.26587338,.0010353,97.5071,224.0458,117.0922,243.1374,0,U,57188,999,16314,.32596E-3,.8471E-4,0
VIZARD-METEO (RS38S),2023-091Z,2026-06-09T12:36:04.180896,15.35780088,.0008656,97.5095,229.8581,100.5439,259.6780,0,U,57189,999,16351,.44197E-3,.15332E-3,0
SITRO-AIS 6 (CHIRKIN),2023-091AC,2026-06-09T12:10:14.147616,15.25787932,.0012994,97.5073,223.4940,130.1824,230.0554,0,U,57192,999,16311,.37105E-3,.9431E-4,0
